GLOBALSTAR M001         
1 25162U 98008A   25184.68672001 -.00000078  00000+0  13933-3 0  9998
2 25162  52.0039 285.2020 0000955 270.5569 260.1789 12.38214172245756
GLOBALSTAR M004         
1 25163U 98008B   25184.75635692 -.00000099  00000+0  27983-4 0  9996
2 25163  52.0021   3.6033 0002713 343.7090  28.7660 12.63397579263780
GLOBALSTAR M003         
1 25165U 98008D   25184.55530972 -.00000118  00000+0 -30388-3 0  9996
2 25165  51.9975 123.1914 0008261 329.3792 201.7621 12.12073018235206
GLOBALSTAR M014         
1 25306U 98023A   25184.53100681 -.00000065  00000+0  22981-3 0  9998
2 25306  51.9828 122.1045 0001485  23.5323 148.5592 11.65481464193076
GLOBALSTAR M006         
1 25307U 98023B   25185.20583976 -.00000052  00000+0  48782-3 0  9999
2 25307  51.9904 173.5075 0002866 137.4461 235.2496 11.58176685218913
GLOBALSTAR M015         
1 25308U 98023C   25184.56914734 -.00000078  00000+0 -96719-4 0  9991
2 25308  51.9824 274.3177 0012821 106.3155 266.9958 11.48860166195961
GLOBALSTAR M008         
1 25309U 98023D   25184.67397172 -.00000115  00000+0 -15256-3 0  9993
2 25309  51.9952 150.2543 0002353 213.7962 317.9069 12.36070724239882
